ORBCOMM FM24            
1 25478U 98053D   25299.86680344  .00001686  00000+0  59323-3 0  9992
2 25478  45.0089   4.5944 0003583 206.2001 153.8667 14.38467805416407
ORBCOMM FM25            
1 25479U 98053E   25299.91030294  .00001608  00000+0  56828-3 0  9993
2 25479  45.0079   2.6787 0005987 203.4586 156.5990 14.38437845416701
ORBCOMM FM26            
1 25480U 98053F   25299.87105810  .00001368  00000+0  50003-3 0  9999
2 25480  45.0083   0.2933 0007994 212.6308 147.4047 14.37440864416592
ORBCOMM FM27            
1 25481U 98053G   25299.89501900  .00001593  00000+0  56318-3 0  9997
2 25481  45.0068   2.9034 0002649 227.9164 132.1460 14.38473012416635
ORBCOMM FM28            
1 25482U 98053H   25299.98638949  .00001518  00000+0  53690-3 0  9999
2 25482  45.0058 299.7978 0006513 254.3251 105.6880 14.38617295417335
ORBCOMM FM30            
1 25980U 99065A   25299.98490029  .00001309  00000+0  47896-3 0  9990
2 25980  45.0307 185.7461 0007154 316.8848  43.1440 14.37609071353412
ORBCOMM FM31            
1 25981U 99065B   25299.68620083  .00001190  00000+0  44064-3 0  9995
2 25981  45.0218 180.6218 0004790 341.2562  18.8109 14.37535390352924
ORBCOMM FM32            
1 25982U 99065C   25299.68059878  .00001326  00000+0  49458-3 0  9997
2 25982  45.0149 198.1074 0007402 333.0712  26.9751 14.36592370353509
